*******************************************************************************
JPL/HORIZONS                514 Armida (A903 QC)           2020-Jun-22 09:12:19
Rec #:     514 (+COV) Soln.date: 2020-May-20_01:07:23   # obs: 3032 (1903-2020)
 
IAU76/J2000 helio. ecliptic osc. elements (au, days, deg., period=Julian yrs):
 
  EPOCH=  2455010.5 ! 2009-Jun-28.00 (TDB)         Residual RMS= .28981
   EC= .04571977507193997  QR= 2.91047792777201    TP= 2455388.3616680256
   OM= 268.9654419943718   W=  109.5200907539246   IN= 3.8805881626982
   A= 3.049919564236408    MA= 290.0795310265482   ADIST= 3.189361200700806
   PER= 5.32649            N= .185042498           ANGMOM= .030010364
   DAN= 3.09076            DDN= 2.99775            L= 18.526988
   B= 3.6572362            MOID= 1.91452003        TP= 2010-Jul-10.8616680256
 
Asteroid physical parameters (km, seconds, rotational period in hours):
   GM= n.a.                RAD= 60.0465            ROTPER= 21.851
   H= 9.2                  G= .150                 B-V= .675
                           ALBEDO= .030            STYP= XC
 
ASTEROID comments: 
1: soln ref.= JPL#89, OCC=0
2: source=ORB
*******************************************************************************
 
 
*******************************************************************************
Ephemeris / WWW_USER Mon Jun 22 09:12:19 2020 Pasadena, USA      / Horizons
*******************************************************************************
Target body name: 514 Armida (A903 QC)            {source: JPL#89}
Center body name: Solar System Barycenter (0)     {source: DE431}
Center-site name: BODY CENTER
*******************************************************************************
Start time      : A.D. 1969-Jun-28 00:00:00.0000 TDB
Stop  time      : A.D. 2071-May-04 00:00:00.0000 TDB
Step-size       : 7200 minutes
*******************************************************************************
Center geodetic : 0.00000000,0.00000000,0.0000000 {E-lon(deg),Lat(deg),Alt(km)}
Center cylindric: 0.00000000,0.00000000,0.0000000 {E-lon(deg),Dxy(km),Dz(km)}
Center radii    : (undefined)                                                  
Small perturbers: Yes                             {source: SB431-N16}
Output units    : AU-D
Output type     : GEOMETRIC cartesian states
Output format   : 2 (position and velocity)
Reference frame : Ecliptic of J2000.0
*******************************************************************************
Initial IAU76/J2000 heliocentric ecliptic osculating elements (au, days, deg.):
  EPOCH=  2455010.5 ! 2009-Jun-28.00 (TDB)         Residual RMS= .28981        
   EC= .04571977507193997  QR= 2.91047792777201    TP= 2455388.3616680256      
   OM= 268.9654419943718   W=  109.5200907539246   IN= 3.8805881626982         
  Equivalent ICRF heliocentric equatorial cartesian coordinates (au, au/d):
   X= 1.658495211792271E+00  Y=-2.345695890822320E+00  Z=-8.910389897027414E-01
  VX= 8.056208951693197E-03 VY= 5.178195724862158E-03 VZ= 2.832704245507744E-03
Asteroid physical parameters (km, seconds, rotational period in hours):        
   GM= n.a.                RAD= 60.0465            ROTPER= 21.851              
   H= 9.2                  G= .150                 B-V= .675                   
                           ALBEDO= .030            STYP= XC                    
*******************************************************************************
            JDTDB,            Calendar Date (TDB),        delta-T,                      X,                      Y,                      Z,                     VX,                     VY,                     VZ,
******************************************************************************************************************************************************************************************************************
$$SOE
2446140.500000000, A.D. 1985-Mar-16 00:00:00.0000,      54.185595, -9.769454639863553E-01,  2.867763807122826E+00, -6.813747097359438E-02, -9.503825173303653E-03, -2.861103885383099E-03, -6.420245082485976E-04,
2446145.500000000, A.D. 1985-Mar-21 00:00:00.0000,      54.185636, -1.024331650010050E+00,  2.853075870426869E+00, -7.133833493044607E-02, -9.450243249766968E-03, -3.013891853371107E-03, -6.382936557185827E-04,
2446150.500000000, A.D. 1985-Mar-26 00:00:00.0000,      54.185664, -1.071443856702292E+00,  2.837626709565878E+00, -7.452013472543385E-02, -9.394237475217579E-03, -3.165587255506023E-03, -6.343991211859980E-04,
2446155.500000000, A.D. 1985-Mar-31 00:00:00.0000,      54.185679, -1.118270025772078E+00,  2.821421881301049E+00, -7.768205614364125E-02, -9.335832324067364E-03, -3.316152620468798E-03, -6.303425886225978E-04,
2446160.500000000, A.D. 1985-Apr-05 00:00:00.0000,      54.185680, -1.164798222618782E+00,  2.804467128224402E+00, -8.082329347809407E-02, -9.275052795351034E-03, -3.465551088018746E-03, -6.261257770529009E-04,
2446165.500000000, A.D. 1985-Apr-10 00:00:00.0000,      54.185668, -1.211016638914576E+00,  2.786768375692343E+00, -8.394304970235354E-02, -9.211924396425078E-03, -3.613746413327212E-03, -6.217504394908748E-04,
2446170.500000000, A.D. 1985-Apr-15 00:00:00.0000,      54.185645, -1.256913595105077E+00,  2.768331728738553E+00, -8.704053663781770E-02, -9.146473126578569E-03, -3.760702970952976E-03, -6.172183618796034E-04,
2446175.500000000, A.D. 1985-Apr-20 00:00:00.0000,      54.185612, -1.302477542828113E+00,  2.749163468967687E+00, -9.011497511569098E-02, -9.078725460694995E-03, -3.906385758537454E-03, -6.125313620192284E-04,
2446180.500000000, A.D. 1985-Apr-25 00:00:00.0000,      54.185567, -1.347697067251118E+00,  2.729270051431401E+00, -9.316559513357708E-02, -9.008708333043552E-03, -4.050760400170537E-03, -6.076912884891365E-04,
2446185.500000000, A.D. 1985-Apr-30 00:00:00.0000,      54.185509, -1.392560889327862E+00,  2.708658101488468E+00, -9.619163600667992E-02, -8.936449121227683E-03, -4.193793149381266E-03, -6.027000195716551E-04,
2446190.500000000, A.D. 1985-May-05 00:00:00.0000,      54.185440, -1.437057867975326E+00,  2.687334411650919E+00, -9.919234651364069E-02, -8.861975630293518E-03, -4.335450891736813E-03, -5.975594621813012E-04,
2446195.500000000, A.D. 1985-May-10 00:00:00.0000,      54.185359, -1.481177002171530E+00,  2.665305938418185E+00, -1.021669850370378E-01, -8.785316077003263E-03, -4.475701147044872E-03, -5.922715508019987E-04,
2446200.500000000, A.D. 1985-May-15 00:00:00.0000,      54.185271, -1.524907432975140E+00,  2.642579799101195E+00, -1.051148196985955E-01, -8.706499074273035E-03, -4.614512071169388E-03, -5.868382464327481E-04,
2446205.500000000, A.D. 1985-May-20 00:00:00.0000,      54.185175, -1.568238445467678E+00,  2.619163268638337E+00, -1.080351284891381E-01, -8.625553615777383E-03, -4.751852457473770E-03, -5.812615355415035E-04,
2446210.500000000, A.D. 1985-May-25 00:00:00.0000,      54.185070, -1.611159470619181E+00,  2.595063776405085E+00, -1.109271993933363E-01, -8.542509060724823E-03, -4.887691737915015E-03, -5.755434290256292E-04,
2446215.500000000, A.D. 1985-May-30 00:00:00.0000,      54.184956, -1.653660087078199E+00,  2.570288903018966E+00, -1.137903305092641E-01, -8.457395118825361E-03, -5.021999983817543E-03, -5.696859611770251E-04,
2446220.500000000, A.D. 1985-Jun-04 00:00:00.0000,      54.184835, -1.695730022887242E+00,  2.544846377141450E+00, -1.166238301628000E-01, -8.370241835520164E-03, -5.154747906326476E-03, -5.636911886568163E-04,
2446225.500000000, A.D. 1985-Jun-09 00:00:00.0000,      54.184707, -1.737359157125295E+00,  2.518744072278577E+00, -1.194270170169797E-01, -8.281079577595343E-03, -5.285906856418579E-03, -5.575611895072424E-04,
2446230.500000000, A.D. 1985-Jun-14 00:00:00.0000,      54.184576, -1.778537521479323E+00,  2.491990003583161E+00, -1.221992201765869E-01, -8.189939019118344E-03, -5.415448824239103E-03, -5.512980622394328E-04,
2446235.500000000, A.D. 1985-Jun-19 00:00:00.0000,      54.184443, -1.819255301745324E+00,  2.464592324661737E+00, -1.249397792882943E-01, -8.096851127234189E-03, -5.543346437964136E-03, -5.449039249439302E-04,
2446240.500000000, A.D. 1985-Jun-24 00:00:00.0000,      54.184306, -1.859502839257589E+00,  2.436559324386916E+00, -1.276480446361491E-01, -8.001847147722540E-03, -5.669572962863845E-03, -5.383809143074803E-04,
2446245.500000000, A.D. 1985-Jun-29 00:00:00.0000,      54.184165, -1.899270632246574E+00,  2.407899423713793E+00, -1.303233772319670E-01, -7.904958591001330E-03, -5.794102300516467E-03, -5.317311845832473E-04,
2446250.500000000, A.D. 1985-Jul-04 00:00:00.0000,      55.184022, -1.938549337128568E+00,  2.378621172501354E+00, -1.329651489007417E-01, -7.806217218802880E-03, -5.916908987512010E-03, -5.249569066395674E-04,
2446255.500000000, A.D. 1985-Jul-09 00:00:00.0000,      55.183879, -1.977329769729670E+00,  2.348733246341997E+00, -1.355727423615156E-01, -7.705655031157489E-03, -6.037968193541820E-03, -5.180602670838401E-04,
2446260.500000000, A.D. 1985-Jul-14 00:00:00.0000,      55.183739, -2.015602906444964E+00,  2.318244443401578E+00, -1.381455513039344E-01, -7.603304253491342E-03, -6.157255719132741E-03, -5.110434674083964E-04,
2446265.500000000, A.D. 1985-Jul-19 00:00:00.0000,      55.183601, -2.053359885333545E+00,  2.287163681271350E+00, -1.406829804605430E-01, -7.499197323871017E-03, -6.274747993173151E-03, -5.039087231384666E-04,
2446270.500000000, A.D. 1985-Jul-24 00:00:00.0000,      55.183466, -2.090592007150259E+00,  2.255499993832717E+00, -1.431844456748275E-01, -7.393366880460248E-03, -6.390422070253355E-03, -4.966582629851283E-04,
2446275.500000000, A.D. 1985-Jul-29 00:00:00.0000,      55.183334, -2.127290736315339E+00,  2.223262528135793E+00, -1.456493739650498E-01, -7.285845749221452E-03, -6.504255627808213E-03, -4.892943280092064E-04,
